[{"OBJECT_NAME":"ONEWEB-0046","OBJECT_ID":"2020-020Z","EPOCH":"2026-03-09T21:11:22.909920","MEAN_MOTION":13.11417963,"ECCENTRICITY":0.00016733,"INCLINATION":87.8871,"RA_OF_ASC_NODE":40.8067,"ARG_OF_PERICENTER":77.2615,"MEAN_ANOMALY":282.87,"EPHEMERIS_TYPE":0,"CLASSIFICATION_TYPE":"U","NORAD_CAT_ID":45447,"ELEMENT_SET_NO":999,"REV_AT_EPOCH":28959,"BSTAR":-0.00052196594,"MEAN_MOTION_DOT":-1.72e-6,"MEAN_MOTION_DDOT":0},{"OBJECT_NAME":"COSMOS 2499 DEB","OBJECT_ID":"2014-028BP","EPOCH":"2026-02-24T20:45:39.667680","MEAN_MOTION":13.35889822,"ECCENTRICITY":0.02906935,"INCLINATION":82.3289,"RA_OF_ASC_NODE":256.1121,"ARG_OF_PERICENTER":42.5314,"MEAN_ANOMALY":319.7942,"EPHEMERIS_TYPE":0,"CLASSIFICATION_TYPE":"U","NORAD_CAT_ID":56580,"ELEMENT_SET_NO":999,"REV_AT_EPOCH":9981,"BSTAR":0.012822938,"MEAN_MOTION_DOT":8.35e-5,"MEAN_MOTION_DDOT":0}]
